    PK14W040  2032 11 23.4674  4.245115  0.354926   67.6853   33.3253   15.2849  20241122  11.0  4.0  P/2014 W4 (PANSTARRS)                                    MPC105542
    PK14X010  2030 06 14.8081  1.793032  0.710778   33.9215   61.5565   26.0534  20241122  15.0  4.0  P/2014 X1 (Elenin)                                       MPC 94281
    PK15A030  2015 02 21.6378  1.168350  0.850548  249.6475  277.4733  172.5507  20241122  20.0  4.0  P/2015 A3 (PANSTARRS)                                    MPC 92275
    PK15B010  2015 09  5.8481  6.002812  0.366585  188.6986  352.8616   18.0803  20241122   8.5  4.0  P/2015 B1 (PANSTARRS)                                    MPC 99270
    PK15B040  2015 02  7.0236  3.723557  0.562241  227.0948  266.1328    1.7674  20241122  11.0  4.0  P/2015 B4 (Lemmon-PANSTARRS)                             MPC109141
    PK15C010  2032 02  9.9597  2.848530  0.565510  177.9908  348.7850   13.9432  20241122  12.5  4.0  P/2015 C1 (TOTAS-Gibbs)                                  MPC101096
    PK15D050  2014 04  8.1779  4.547042  0.491647   39.6002   74.0902   20.5534  20241122   9.0  4.0  P/2015 D5 (Kowalski)                                     MPC109141
    PK15D060  2015 07  2.0700  4.543200  0.362097  125.8255   45.4884   20.2757  20241122  10.5  4.0  P/2015 D6 (Lemmon-PANSTARRS)                             MPEC 2024-R10
    PK15K050  2032 11  4.7356  3.017977  0.551435  106.1433  134.2960   39.9296  20241122  13.5  4.0  P/2015 K5 (PANSTARRS)                                    MPC 95213
    PK15M020  2015 09  4.6654  5.963216  0.177930  225.8689   86.6986    3.9678  20241122   8.5  4.0  P/2015 M2 (PANSTARRS)                                    MPC107684
    PK15P040  2030 12 10.5282  2.507426  0.585378  280.7314  104.6854    8.7216  20241122  14.0  4.0  P/2015 P4 (PANSTARRS)                                    MPC 99819
    PK15PM9D  2015 08 12.6368  4.858724  0.325606  352.7155  342.7446    2.0211  20241122  11.5  2.0  P/2015 PD229 (Cameron-ISON)                              MPEC 2022-K19
    PK15Q020  2015 09 12.3473  1.823921  0.751845  244.6713  228.5527  146.5572  20241122  15.5  4.0  P/2015 Q2 (Pimentel)                                     MPC 96867
    PK15R010  2029 10  7.1284  2.157764  0.633243  300.5406   48.3798   22.6866  20241122  14.0  4.0  P/2015 R1 (PANSTARRS)                                    MPC 98562
    PK15R020  2024 12 15.7309  2.454967  0.452168  149.8772  168.6032   15.4817  20241122  14.5  4.0  P/2015 R2 (PANSTARRS)                                    MPC 95734
    PK15T19O  2025 11 23.3951  2.911750  0.359678   89.3095  321.6609    6.5053  20241122  14.0  4.0  P/2015 TO19 (Lemmon-PANSTARRS)                           MPC102953
    PK15TK0P  2016 11  2.3760  3.359767  0.537346   82.5369    6.9394    8.7800  20241122  11.0  4.0  P/2015 TP200 (LINEAR)                                    MPC110080
    PK15W020  2015 10  8.3111  2.658111  0.635490  117.6760  294.0919   11.6187  20241122  13.0  4.0  P/2015 W2 (Catalina)                                     MPC101098
    PK15X030  2026 10 23.4808  2.799448  0.440001  306.9555   77.2561   24.4231  20241122  15.0  4.0  P/2015 X3 (PANSTARRS)                                    MPEC 2023-J29
    PK15X060  2025 05 11.7155  2.273607  0.173766  329.8070  106.9362    4.5654  20241122  16.0  4.0  P/2015 X6 (PANSTARRS)                                    MPC115881
    PK16A020  2025 10 22.7771  3.460466  0.272008  141.3711  291.6239   26.3557  20241122  11.5  4.0  P/2016 A2 (Christensen)                                  MPEC 2024-UQ8
    PK16A030  2017 04 25.6386  4.825932  0.386745  340.7979  187.1530    8.5179  20241122  10.0  4.0  P/2016 A3 (PANSTARRS)                                    MPEC 2022-OB6
    PK16A070  2027 05 30.1874  2.176936  0.568608  352.5057  221.2699   16.5087  20241122  16.0  4.0  P/2016 A7 (PANSTARRS)                                    MPC102098
    PK16G010  2025 05 16.1674  2.041009  0.210128  111.0936  204.0156   10.9701  20241122  14.0  4.0  P/2016 G1 (PANSTARRS)                                    MPEC 2021-P47
    CK16J020  2016 04 13.3693  1.496406  1.000447  318.3298  186.3600  130.3520  20241122  17.0  4.0  C/2016 J2 (Denneau)                                      MPEC 2024-C04
    PK16P010  2027 03  5.3216  2.281512  0.287790  270.8538  319.1961   24.3989  20241122  15.0  4.0  P/2016 P1 (PANSTARRS)                                    MPC102099
    CK16Q020  2021 05 12.0535  7.080232  1.002919   84.5408  322.3430  109.3407  20241122   6.0  4.0  C/2016 Q2 (PANSTARRS)                                    MPEC 2024-H50
    PK16R040  2028 11 19.1578  2.801172  0.475058  174.1229  168.2756   10.8673  20241122  12.5  4.0  P/2016 R4 (Gibbs)                                        MPEC 2022-K19
    PK16S010  2017 03 19.7684  2.383594  0.711720  273.1788  227.6686   94.7373  20241122  12.0  4.0  P/2016 S1 (PANSTARRS)                                    MPC105543
    PK16W48M  2017 02 26.3466  1.766200  0.783917   36.1826   59.9539  117.6348  20241122  15.0  4.0  P/2016 WM48 (Lemmon)                                     MPC106345
    CK16X010  2019 04 29.8946  7.557365  0.996556  224.5706  256.2995   26.4701  20241122   6.0  4.0  C/2016 X1 (Lemmon)                                       MPEC 2021-P47
    CK17B030  2019 01 30.5091  3.934287  0.999092  284.8009    2.2189   54.2011  20241122   6.0  4.0  C/2017 B3 (LINEAR)                                       MPEC 2022-OB6
    PK17B040  2017 01  5.8178  2.800894  0.364952   11.0197  121.4578   20.0584            14.5  4.0  P/2017 B4 (PANSTARRS)                                    MPC103847
    PK17D010  2027 01 30.8546  2.712017  0.437779    8.0347   82.1986   20.7720  20241122  14.0  4.0  P/2017 D1 (Fuls)                                         MPEC 2022-OB6
    PK17D040  2016 09  9.2598  2.787697  0.630395  212.1207  264.9126   10.5610  20241122  13.0  4.0  P/2017 D4 (PANSTARRS)                                    MPEC 2022-OB6
    PK17G010  2016 04 19.5003  2.512932  0.650640  225.2336  247.1432    5.1557  20241122  13.5  4.0  P/2017 G1 (PANSTARRS)                                    MPEC 2024-C04
    PK17G020  2017 06  9.5429  2.825843  0.648461  105.2329   79.9018   47.9683  20241122  13.0  4.0  P/2017 G2 (PANSTARRS)                                    MPC108595
    CK17K020  2022 12 19.1847  1.799181  0.999754  236.2031   88.2223   87.6307  20241122   1.5  4.0  C/2017 K2 (PANSTARRS)                                    MPEC 2024-VJ2
    PK17K030  2030 08  2.2111  2.351251  0.579044  253.2985  354.2481    4.2728  20241122  14.5  4.0  P/2017 K3 (Gasparovic)                                   MPEC 2021-N06
    CK17K050  2020 03 26.1606  7.681496  1.003418  171.9870  102.4503   82.2767  20241122   5.0  4.0  C/2017 K5 (PANSTARRS)                                    MPEC 2021-P47
    CK17M040  2019 01 17.7934  3.239918  1.000455  167.4646   66.0235  105.6222  20241122   6.0  4.0  C/2017 M4 (ATLAS)                                        MPEC 2022-OB6
    PK17P010  2018 06 21.1805  5.470128  0.309449  122.8163  221.4632    7.6878  20241122  10.0  4.0  P/2017 P1 (PANSTARRS)                                    MPC114599
    PK17S080  2022 09 15.5276  1.691937  0.391109  254.8935  191.5223   29.8414  20241122  16.0  4.0  P/2017 S8 (PANSTARRS)                                    MPEC 2022-OB6
    CK17T020  2020 05  5.6135  1.606156  0.998944   92.7949   64.4522   57.2937  20241122   5.0  4.0  C/2017 T2 (PANSTARRS)                                    MPEC 2024-A43
    PK17T13W  2018 06 23.4967  2.064053  0.710761  119.9753  322.1587   44.8759  20241122  15.0  2.0  P/2017 TW13 (Lemmon)                                     MPC115882
    PK17U030  2030 03 14.7831  4.424969  0.100694  296.3317  165.0690   15.9198  20241122  11.0  4.0  P/2017 U3 (PANSTARRS)                                    MPEC 2022-K19
    CK17U070  2019 09 16.2416  6.423748  1.002786  326.4527  276.3149  142.6374  20241122   8.3  2.0  C/2017 U7 (PANSTARRS)                                    MPEC 2023-A50
    PK17W030  2018 02 26.1203  3.857452  0.506755  327.7636  210.1040   18.1814  20241122  10.5  4.0  P/2017 W3 (Gibbs)                                        MPC114601
    CK17Y020  2020 11  5.0583  4.625082  1.001350  147.8584   66.0369  128.4498  20241122  15.0  4.0  C/2017 Y2 (PANSTARRS)                                    MPEC 2024-DC6
    PK17Y030  2018 02  6.4365  1.279529  0.869425   67.3971  153.9755   27.6132  20241122  16.5  4.0  P/2017 Y3 (Leonard)                                      MPC111770
    CK18A030  2019 01  8.9539  3.289588  0.990421   86.4570  194.3332  139.5842  20241122   8.5  4.0  C/2018 A3 (ATLAS)                                        MPEC 2021-P47
    PK18A050  2031 01 30.7508  2.674951  0.524439  359.5297   87.7835   23.6236  20241122  15.0  4.0  P/2018 A5 (PANSTARRS)                                    MPC109147
    CK18A060  2019 07 10.2695  3.018316  0.798817  264.2927  340.4340   77.1326  20241122   9.0  4.0  C/2018 A6 (Gibbs)                                        MPEC 2024-JU4
    PK18C010  2031 07 31.2269  2.641539  0.532485  235.7559  270.2368    5.1037  20241122  13.5  4.0  P/2018 C1 (Lemmon-Read)                                  MPC114601
    CK18D04O  2019 08 16.9080  2.419677  0.905034  176.3800  251.3868  160.4481  20241122  11.0  4.0  C/2018 DO4 (Lemmon)                                      MPEC 2022-M88
    CK18F010  2018 12 10.2630  2.994246  0.986405   71.4757  177.3043   46.1426  20241122  11.5  4.0  C/2018 F1 (Grauer)                                       MPEC 2021-R75
    CK18F040  2019 12  1.2928  3.447988  0.998249  263.2035   26.5254   78.1095  20241122  11.0  6.0  C/2018 F4 (PANSTARRS)                                    MPEC 2023-A50
    CK18F04a  2019 12  1.2809  3.447856  0.998196  263.2003   26.5256   78.1097  20241122  11.0  6.0  C/2018 F4-A                                              MPEC 2021-Y10
